CCSDS_OMM_VERS = 2.0
CREATION_DATE  = 
ORIGINATOR     = 

OBJECT_NAME    = COSMOS 2228
OBJECT_ID      = 1992-094A
CENTER_NAME    = EARTH
REF_FRAME      = TEME
TIME_SYSTEM    = UTC
MEAN_ELEMENT_THEORY = SGP/SGP4

EPOCH          = 2025-12-02T11:04:21.320832
MEAN_MOTION    = 14.96650009
ECCENTRICITY   = .0016274
INCLINATION    = 82.5171
RA_OF_ASC_NODE = 330.3699
ARG_OF_PERICENTER = 269.4558
MEAN_ANOMALY   = 90.4799

EPHEMERIS_TYPE = 0
CLASSIFICATION_TYPE = U
NORAD_CAT_ID   = 22286
ELEMENT_SET_NO = 999
REV_AT_EPOCH   = 76151
BSTAR          = .29567E-3
MEAN_MOTION_DOT = .3404E-4
MEAN_MOTION_DDOT = 0

CCSDS_OMM_VERS = 2.0
CREATION_DATE  = 
ORIGINATOR     = 

OBJECT_NAME    = SL-16 R/B
OBJECT_ID      = 1993-016B
CENTER_NAME    = EARTH
REF_FRAME      = TEME
TIME_SYSTEM    = UTC
MEAN_ELEMENT_THEORY = SGP/SGP4

EPOCH          = 2025-12-02T12:39:36.083808
MEAN_MOTION    = 14.15288828
ECCENTRICITY   = .0007861
INCLINATION    = 71.0091
RA_OF_ASC_NODE = 59.2514
ARG_OF_PERICENTER = 117.1086
MEAN_ANOMALY   = 243.0839

EPHEMERIS_TYPE = 0
CLASSIFICATION_TYPE = U
NORAD_CAT_ID   = 22566
ELEMENT_SET_NO = 999
REV_AT_EPOCH   = 68842
BSTAR          = -.59909E-4
MEAN_MOTION_DOT = -.164E-5
MEAN_MOTION_DDOT = 0

CCSDS_OMM_VERS = 2.0
CREATION_DATE  = 
ORIGINATOR     = 

OBJECT_NAME    = COSMOS 2242
OBJECT_ID      = 1993-024A
CENTER_NAME    = EARTH
REF_FRAME      = TEME
TIME_SYSTEM    = UTC
MEAN_ELEMENT_THEORY = SGP/SGP4

EPOCH          = 2025-12-02T11:16:02.106048
MEAN_MOTION    = 14.96037137
ECCENTRICITY   = .0014754
INCLINATION    = 82.5194
RA_OF_ASC_NODE = 359.6618
ARG_OF_PERICENTER = 272.4020
MEAN_ANOMALY   = 87.5513

EPHEMERIS_TYPE = 0
CLASSIFICATION_TYPE = U
NORAD_CAT_ID   = 22626
ELEMENT_SET_NO = 999
REV_AT_EPOCH   = 76585
BSTAR          = .26422E-3
MEAN_MOTION_DOT = .2996E-4
MEAN_MOTION_DDOT = 0

CCSDS_OMM_VERS = 2.0
CREATION_DATE  = 
ORIGINATOR     = 

OBJECT_NAME    = SL-16 R/B
OBJECT_ID      = 1993-059B
CENTER_NAME    = EARTH
REF_FRAME      = TEME
TIME_SYSTEM    = UTC
MEAN_ELEMENT_THEORY = SGP/SGP4

EPOCH          = 2025-12-02T03:28:32.199168
MEAN_MOTION    = 14.17209170
ECCENTRICITY   = .0017322
INCLINATION    = 70.9894
RA_OF_ASC_NODE = 216.8274
ARG_OF_PERICENTER = 351.2652
MEAN_ANOMALY   = 8.8167

EPHEMERIS_TYPE = 0
CLASSIFICATION_TYPE = U
NORAD_CAT_ID   = 22803
ELEMENT_SET_NO = 999
REV_AT_EPOCH   = 66571
BSTAR          = .14868E-3
MEAN_MOTION_DOT = .252E-5
MEAN_MOTION_DDOT = 0

CCSDS_OMM_VERS = 2.0
CREATION_DATE  = 
ORIGINATOR     = 

OBJECT_NAME    = ARIANE 40 R/B
OBJECT_ID      = 1993-061H
CENTER_NAME    = EARTH
REF_FRAME      = TEME
TIME_SYSTEM    = UTC
MEAN_ELEMENT_THEORY = SGP/SGP4

EPOCH          = 2025-12-02T10:08:27.464640
MEAN_MOTION    = 14.32790413
ECCENTRICITY   = .0010295
INCLINATION    = 98.5091
RA_OF_ASC_NODE = 42.1396
ARG_OF_PERICENTER = 207.0254
MEAN_ANOMALY   = 153.0395

EPHEMERIS_TYPE = 0
CLASSIFICATION_TYPE = U
NORAD_CAT_ID   = 22830
ELEMENT_SET_NO = 999
REV_AT_EPOCH   = 68017
BSTAR          = .15776E-3
MEAN_MOTION_DOT = .387E-5
MEAN_MOTION_DDOT = 0

CCSDS_OMM_VERS = 2.0
CREATION_DATE  = 
ORIGINATOR     = 

OBJECT_NAME    = COSMOS 2278
OBJECT_ID      = 1994-023A
CENTER_NAME    = EARTH
REF_FRAME      = TEME
TIME_SYSTEM    = UTC
MEAN_ELEMENT_THEORY = SGP/SGP4

EPOCH          = 2025-12-02T11:49:50.199168
MEAN_MOTION    = 14.14350852
ECCENTRICITY   = .0008904
INCLINATION    = 71.0554
RA_OF_ASC_NODE = 18.4488
ARG_OF_PERICENTER = 194.8433
MEAN_ANOMALY   = 165.2430

EPHEMERIS_TYPE = 0
CLASSIFICATION_TYPE = U
NORAD_CAT_ID   = 23087
ELEMENT_SET_NO = 999
REV_AT_EPOCH   = 63106
BSTAR          = .27034E-4
MEAN_MOTION_DOT = .5E-7
MEAN_MOTION_DDOT = 0

CCSDS_OMM_VERS = 2.0
CREATION_DATE  = 
ORIGINATOR     = 

OBJECT_NAME    = SL-16 R/B
OBJECT_ID      = 1994-023B
CENTER_NAME    = EARTH
REF_FRAME      = TEME
TIME_SYSTEM    = UTC
MEAN_ELEMENT_THEORY = SGP/SGP4

EPOCH          = 2025-12-02T07:13:29.125056
MEAN_MOTION    = 14.14996910
ECCENTRICITY   = .000106
INCLINATION    = 71.0000
RA_OF_ASC_NODE = 275.4067
ARG_OF_PERICENTER = 79.0165
MEAN_ANOMALY   = 281.1077

EPHEMERIS_TYPE = 0
CLASSIFICATION_TYPE = U
NORAD_CAT_ID   = 23088
ELEMENT_SET_NO = 999
REV_AT_EPOCH   = 63231
BSTAR          = .21897E-3
MEAN_MOTION_DOT = .376E-5
MEAN_MOTION_DDOT = 0

CCSDS_OMM_VERS = 2.0
CREATION_DATE  = 
ORIGINATOR     = 

OBJECT_NAME    = SL-16 R/B
OBJECT_ID      = 1994-074B
CENTER_NAME    = EARTH
REF_FRAME      = TEME
TIME_SYSTEM    = UTC
MEAN_ELEMENT_THEORY = SGP/SGP4

EPOCH          = 2025-12-02T01:17:11.253408
MEAN_MOTION    = 14.79269495
ECCENTRICITY   = .00067642
INCLINATION    = 97.7214
RA_OF_ASC_NODE = 5.7825
ARG_OF_PERICENTER = 167.2953
MEAN_ANOMALY   = 245.9280

EPHEMERIS_TYPE = 0
CLASSIFICATION_TYPE = U
NORAD_CAT_ID   = 23343
ELEMENT_SET_NO = 999
REV_AT_EPOCH   = 67281
BSTAR          = .91019884E-4
MEAN_MOTION_DOT = .627E-5
MEAN_MOTION_DDOT = 0

CCSDS_OMM_VERS = 2.0
CREATION_DATE  = 
ORIGINATOR     = 

OBJECT_NAME    = SL-16 R/B
OBJECT_ID      = 1994-077B
CENTER_NAME    = EARTH
REF_FRAME      = TEME
TIME_SYSTEM    = UTC
MEAN_ELEMENT_THEORY = SGP/SGP4

EPOCH          = 2025-12-02T07:41:38.549184
MEAN_MOTION    = 14.15545641
ECCENTRICITY   = .0004571
INCLINATION    = 70.9810
RA_OF_ASC_NODE = 197.3326
ARG_OF_PERICENTER = 292.3396
MEAN_ANOMALY   = 67.7241

EPHEMERIS_TYPE = 0
CLASSIFICATION_TYPE = U
NORAD_CAT_ID   = 23405
ELEMENT_SET_NO = 999
REV_AT_EPOCH   = 60245
BSTAR          = -.1885E-4
MEAN_MOTION_DOT = -.85E-6
MEAN_MOTION_DDOT = 0

CCSDS_OMM_VERS = 2.0
CREATION_DATE  = 
ORIGINATOR     = 

OBJECT_NAME    = ARIANE 40+ R/B
OBJECT_ID      = 1995-021B
CENTER_NAME    = EARTH
REF_FRAME      = TEME
TIME_SYSTEM    = UTC
MEAN_ELEMENT_THEORY = SGP/SGP4

EPOCH          = 2025-12-02T04:06:38.440800
MEAN_MOTION    = 14.39681886
ECCENTRICITY   = .00077712
INCLINATION    = 98.4665
RA_OF_ASC_NODE = 43.8872
ARG_OF_PERICENTER = 77.5707
MEAN_ANOMALY   = 336.4964

EPHEMERIS_TYPE = 0
CLASSIFICATION_TYPE = U
NORAD_CAT_ID   = 23561
ELEMENT_SET_NO = 999
REV_AT_EPOCH   = 60521
BSTAR          = .14010236E-3
MEAN_MOTION_DOT = .395E-5
MEAN_MOTION_DDOT = 0

CCSDS_OMM_VERS = 2.0
CREATION_DATE  = 
ORIGINATOR     = 

OBJECT_NAME    = SL-16 R/B
OBJECT_ID      = 1995-058B
CENTER_NAME    = EARTH
REF_FRAME      = TEME
TIME_SYSTEM    = UTC
MEAN_ELEMENT_THEORY = SGP/SGP4

EPOCH          = 2025-12-02T11:08:19.233600
MEAN_MOTION    = 14.15477683
ECCENTRICITY   = .0014883
INCLINATION    = 71.0224
RA_OF_ASC_NODE = 24.3786
ARG_OF_PERICENTER = 268.1169
MEAN_ANOMALY   = 91.8249

EPHEMERIS_TYPE = 0
CLASSIFICATION_TYPE = U
NORAD_CAT_ID   = 23705
ELEMENT_SET_NO = 999
REV_AT_EPOCH   = 55409
BSTAR          = .19851E-3
MEAN_MOTION_DOT = .341E-5
MEAN_MOTION_DDOT = 0

CCSDS_OMM_VERS = 2.0
CREATION_DATE  = 
ORIGINATOR     = 

OBJECT_NAME    = SL-16 R/B
OBJECT_ID      = 1996-051B
CENTER_NAME    = EARTH
REF_FRAME      = TEME
TIME_SYSTEM    = UTC
MEAN_ELEMENT_THEORY = SGP/SGP4

EPOCH          = 2025-12-02T12:03:52.613856
MEAN_MOTION    = 14.12394795
ECCENTRICITY   = .0019132
INCLINATION    = 70.7602
RA_OF_ASC_NODE = 20.9529
ARG_OF_PERICENTER = 274.0084
MEAN_ANOMALY   = 85.8848

EPHEMERIS_TYPE = 0
CLASSIFICATION_TYPE = U
NORAD_CAT_ID   = 24298
ELEMENT_SET_NO = 999
REV_AT_EPOCH   = 50792
BSTAR          = .31903E-4
MEAN_MOTION_DOT = .1E-6
MEAN_MOTION_DDOT = 0

