COSMOS 2228             
1 22286U 92094A   25336.46135788  .00003404  00000+0  29567-3 0  9997
2 22286  82.5171 330.3699 0016274 269.4558  90.4799 14.96650009761516
SL-16 R/B               
1 22566U 93016B   25336.52750097 -.00000164  00000+0 -59909-4 0  9992
2 22566  71.0091  59.2514 0007861 117.1086 243.0839 14.15288828688427
COSMOS 2242             
1 22626U 93024A   25336.46946882  .00002996  00000+0  26422-3 0  9996
2 22626  82.5194 359.6618 0014754 272.4020  87.5513 14.96037137765856
SL-16 R/B               
1 22803U 93059B   25336.14481712  .00000252  00000+0  14868-3 0  9996
2 22803  70.9894 216.8274 0017322 351.2652   8.8167 14.17209170665710
ARIANE 40 R/B           
1 22830U 93061H   25336.42254010  .00000387  00000+0  15776-3 0  9997
2 22830  98.5091  42.1396 0010295 207.0254 153.0395 14.32790413680173
COSMOS 2278             
1 23087U 94023A   25336.49294212  .00000005  00000+0  27034-4 0  9994
2 23087  71.0554  18.4488 0008904 194.8433 165.2430 14.14350852631060
SL-16 R/B               
1 23088U 94023B   25336.30103154  .00000376  00000+0  21897-3 0  9990
2 23088  71.0000 275.4067 0001060  79.0165 281.1077 14.14996910632312
SL-16 R/B               
1 23343U 94074B   25336.05360247  .00000627  00000+0  91020-4 0  9995
2 23343  97.7214   5.7825 0006764 167.2953 245.9280 14.79269495672810
SL-16 R/B               
1 23405U 94077B   25336.32058506 -.00000085  00000+0 -18850-4 0  9999
2 23405  70.9810 197.3326 0004571 292.3396  67.7241 14.15545641602453
ARIANE 40+ R/B          
1 23561U 95021B   25336.17127825  .00000395  00000+0  14010-3 0  9991
2 23561  98.4665  43.8872 0007771  77.5707 336.4964 14.39681886605217
SL-16 R/B               
1 23705U 95058B   25336.46411150  .00000341  00000+0  19851-3 0  9999
2 23705  71.0224  24.3786 0014883 268.1169  91.8249 14.15477683554094
SL-16 R/B               
1 24298U 96051B   25336.50269229  .00000010  00000+0  31903-4 0  9990
2 24298  70.7602  20.9529 0019132 274.0084  85.8848 14.12394795507926
